[{"OBJECT_NAME":"TIANMU-1 10","OBJECT_ID":"2023-101D","EPOCH":"2026-03-09T23:06:46.939392","MEAN_MOTION":15.2921896,"ECCENTRICITY":0.00069292,"INCLINATION":97.2749,"RA_OF_ASC_NODE":122.1027,"ARG_OF_PERICENTER":133.6162,"MEAN_ANOMALY":226.5654,"EPHEMERIS_TYPE":0,"CLASSIFICATION_TYPE":"U","NORAD_CAT_ID":57402,"ELEMENT_SET_NO":999,"REV_AT_EPOCH":14647,"BSTAR":0.00032238884,"MEAN_MOTION_DOT":9.075e-5,"MEAN_MOTION_DDOT":0},{"OBJECT_NAME":"STARLINK-34858","OBJECT_ID":"2025-161J","EPOCH":"2026-03-09T20:32:59.344224","MEAN_MOTION":15.30216515,"ECCENTRICITY":0.00012609,"INCLINATION":53.158,"RA_OF_ASC_NODE":293.548,"ARG_OF_PERICENTER":126.1688,"MEAN_ANOMALY":233.943,"EPHEMERIS_TYPE":0,"CLASSIFICATION_TYPE":"U","NORAD_CAT_ID":65023,"ELEMENT_SET_NO":999,"REV_AT_EPOCH":3534,"BSTAR":0.0010894334,"MEAN_MOTION_DOT":0.00032063,"MEAN_MOTION_DDOT":0}]
